{"type": "FeatureCollection", "features": [{"type": "Feature", "properties": {"source": "Natural Earth 1:50m land polygons (public domain), clipped to the NW Indian Ocean / Arabian Sea region"}, "geometry": {"type": "MultiPolygon", "coordinates": [[[[79.946973, 6.584521], [79.859375, 6.829297], [79.79209, 7.585205], [79.759961, 7.796484], [79.707812, 8.065674], [79.712988, 8.182324], [79.749805, 8.294238], [79.749707, 8.048877], [79.783496, 8.018457], [79.808887, 8.05], [79.831934, 8.304053], [79.850879, 8.411572], [79.941797, 8.691504], [79.943652, 8.741162], [79.92793, 8.846436], [79.928906, 8.899219], [80.0, 9.00195223051686], [80.0, 6.390805327032232], [79.946973, 6.584521]]], [[[79.979492, 9.699365], [79.954004, 9.742334], [79.966992, 9.792627], [79.982324, 9.812695], [80.0, 9.811734071908756], [80.0, 9.684067118807398], [79.979492, 9.699365]]], [[[73.079785, 8.293066], [73.067383, 8.269092], [73.05332, 8.256689], [73.038867, 8.251953], [73.028516, 8.253516], [73.023438, 8.265918], [73.026074, 8.275293], [73.038965, 8.264844], [73.055859, 8.274561], [73.075195, 8.306348], [73.079492, 8.316504], [73.083594, 8.311035], [73.079785, 8.293066]]], [[[79.874805, 9.050732], [79.903711, 8.975], [79.821094, 9.026855], [79.766797, 9.069775], [79.747656, 9.10459], [79.859961, 9.065723], [79.874805, 9.050732]]], [[[79.858594, 9.734375], [79.872266, 9.744336], [79.888477, 9.741162], [79.911914, 9.67915], [79.969531, 9.630664], [79.906836, 9.619824], [79.857422, 9.686377], [79.845703, 9.714648], [79.858594, 9.734375]]], [[[72.792676, 11.262744], [72.795898, 11.260449], [72.792871, 11.241553], [72.787891, 11.215918], [72.780371, 11.20249], [72.773047, 11.196094], [72.772461, 11.214258], [72.781836, 11.243311], [72.792676, 11.262744]]], [[[58.640918, 20.210693], [58.641211, 20.337354], [58.787988, 20.496582], [58.884375, 20.680566], [58.950781, 20.516162], [58.835156, 20.423926], [58.772266, 20.266846], [58.72207, 20.21875], [58.659082, 20.203613], [58.640918, 20.210693]]], [[[79.981738, 12.235449], [79.858496, 11.98877], [79.771387, 11.690234], [79.754102, 11.575293], [79.793359, 11.44668], [79.748926, 11.370605], [79.693164, 11.312549], [79.799023, 11.338672], [79.835254, 11.268848], [79.848633, 11.196875], [79.850195, 10.768848], [79.838184, 10.322559], [79.756934, 10.304346], [79.667383, 10.299707], [79.588574, 10.312354], [79.531641, 10.329639], [79.390527, 10.305957], [79.314551, 10.256689], [79.253613, 10.174805], [79.257812, 10.035205], [78.996289, 9.683105], [78.939941, 9.565771], [78.919141, 9.452881], [78.953125, 9.393799], [79.019922, 9.33335], [79.107031, 9.308936], [79.275488, 9.284619], [79.356348, 9.252148], [79.411426, 9.192383], [79.212891, 9.256006], [78.97959, 9.268555], [78.421484, 9.105029], [78.274512, 8.990186], [78.19248, 8.890869], [78.136035, 8.663379], [78.126367, 8.511328], [78.060156, 8.38457], [77.770312, 8.189844], [77.587207, 8.129883], [77.517578, 8.07832], [77.301465, 8.145312], [77.065918, 8.315918], [76.966895, 8.407275], [76.617285, 8.84707], [76.553418, 8.902783], [76.48291, 9.090771], [76.471777, 9.16084], [76.452344, 9.18877], [76.419043, 9.207812], [76.403125, 9.236816], [76.324609, 9.4521], [76.292383, 9.676465], [76.242383, 9.9271], [76.284668, 9.909863], [76.343066, 9.827344], [76.372266, 9.707373], [76.375586, 9.539893], [76.419531, 9.520459], [76.458789, 9.53623], [76.346484, 9.922119], [76.24873, 10.017969], [76.222754, 10.024268], [76.195605, 10.086133], [76.192676, 10.16377], [76.201465, 10.200635], [76.12334, 10.327002], [76.096094, 10.402246], [75.922559, 10.784082], [75.844629, 11.057568], [75.723828, 11.361768], [75.646094, 11.468408], [75.524512, 11.703125], [75.422656, 11.812207], [75.314648, 11.958447], [75.229785, 12.02334], [75.19668, 12.05752], [74.945508, 12.564551], [74.868262, 12.84458], [74.80293, 12.976855], [74.770508, 13.077344], [74.682324, 13.506934], [74.681641, 13.58374], [74.670898, 13.667627], [74.608496, 13.849658], [74.498535, 14.046338], [74.466699, 14.168848], [74.466992, 14.216504], [74.397168, 14.407422], [74.382227, 14.494727], [74.335059, 14.575439], [74.280371, 14.649512], [74.223047, 14.708887], [74.08877, 14.902197], [74.040625, 14.949365], [73.949219, 15.074756], [73.884277, 15.306445], [73.800781, 15.396973], [73.931934, 15.396973], [73.851953, 15.482471], [73.813867, 15.538574], [73.771777, 15.573047], [73.832813, 15.659375], [73.732813, 15.656934], [73.679883, 15.708887], [73.607715, 15.871094], [73.476074, 16.054248], [73.453711, 16.1521], [73.337598, 16.459863], [73.23916, 17.198535], [73.149023, 17.527441], [73.156055, 17.621924], [73.047168, 17.906738], [72.993945, 18.097705], [72.97207, 18.259277], [72.943164, 18.365625], [72.917188, 18.576123], [72.875488, 18.642822], [72.870898, 18.683057], [72.89873, 18.778955], [72.976855, 18.927197], [73.005566, 19.021094], [72.97207, 19.15332], [72.900684, 19.014502], [72.834668, 18.975586], [72.803027, 19.079297], [72.802734, 19.21875], [72.794531, 19.2521], [72.811621, 19.298926], [72.987207, 19.277441], [72.787891, 19.362988], [72.763965, 19.413184], [72.756445, 19.450537], [72.799414, 19.519824], [72.726562, 19.578271], [72.697461, 19.757129], [72.675977, 19.797949], [72.667773, 19.830957], [72.708984, 20.078027], [72.881152, 20.563184], [72.89375, 20.672754], [72.878906, 20.828516], [72.840527, 20.95249], [72.824316, 21.083594], [72.813867, 21.117188], [72.751563, 21.12915], [72.692383, 21.177637], [72.623828, 21.371973], [72.686523, 21.435742], [72.734766, 21.470801], [72.668359, 21.455908], [72.613281, 21.461816], [72.717578, 21.55127], [72.810547, 21.619922], [73.022461, 21.699609], [73.1125, 21.750439], [72.979102, 21.704687], [72.839746, 21.687256], [72.543066, 21.696582], [72.59248, 21.877588], [72.644043, 21.937988], [72.700195, 21.971924], [72.61748, 21.961719], [72.522266, 21.976221], [72.553027, 22.159961], [72.62793, 22.199609], [72.708789, 22.207178], [72.80918, 22.233301], [72.701953, 22.263623], [72.590137, 22.278125], [72.455957, 22.248096], [72.332617, 22.270215], [72.182813, 22.269727], [72.242578, 22.245166], [72.306445, 22.189209], [72.274414, 22.089746], [72.244336, 22.027637], [72.161719, 21.984814], [72.094434, 21.919971], [72.075586, 21.862988], [72.037207, 21.823047], [72.10293, 21.79458], [72.170898, 21.774316], [72.210352, 21.728223], [72.256641, 21.66123], [72.254004, 21.531006], [72.076563, 21.224072], [72.015234, 21.155713], [71.571094, 20.970557], [71.396484, 20.869775], [71.024609, 20.738867], [70.879688, 20.714502], [70.719336, 20.74043], [70.485059, 20.840186], [70.127344, 21.094678], [70.034375, 21.178809], [69.748438, 21.505713], [69.541992, 21.678564], [69.385449, 21.839551], [69.191699, 21.991504], [69.008789, 22.196777], [68.969922, 22.290283], [68.983496, 22.3854], [69.05166, 22.437305], [69.131348, 22.41626], [69.194238, 22.336084], [69.238867, 22.300195], [69.276563, 22.285498], [69.549219, 22.408398], [69.655176, 22.403516], [69.727539, 22.465186], [69.819043, 22.451758], [70.005859, 22.547705], [70.08418, 22.553516], [70.177246, 22.572754], [70.327734, 22.815771], [70.44043, 22.970312], [70.513477, 23.00249], [70.509375, 23.040137], [70.489258, 23.089502], [70.43457, 23.0771], [70.396289, 23.030127], [70.367969, 22.973486], [70.339453, 22.939746], [70.251172, 22.970898], [70.191699, 22.965674], [70.118262, 22.947021], [69.849805, 22.856445], [69.739648, 22.775195], [69.664648, 22.759082], [69.235938, 22.848535], [68.81709, 23.053711], [68.640723, 23.189941], [68.529199, 23.364063], [68.41748, 23.571484], [68.453809, 23.629492], [68.627148, 23.75415], [68.776758, 23.8521], [68.642383, 23.808496], [68.496875, 23.747998], [68.424902, 23.705566], [68.343359, 23.616846], [68.234961, 23.596973], [68.191992, 23.728906], [68.165039, 23.857324], [68.148828, 23.797217], [68.115527, 23.753369], [68.067773, 23.818359], [68.037012, 23.848242], [68.001465, 23.826074], [67.950977, 23.828613], [67.859961, 23.902686], [67.819043, 23.828076], [67.668457, 23.810986], [67.649512, 23.867285], [67.645801, 23.919873], [67.563086, 23.881836], [67.503613, 23.940039], [67.476855, 24.018262], [67.453906, 24.039893], [67.427637, 24.064844], [67.365234, 24.091602], [67.309375, 24.174805], [67.304297, 24.262891], [67.288672, 24.367773], [67.171484, 24.756104], [67.100586, 24.791943], [66.703027, 24.860937], [66.682227, 24.928857], [66.709863, 25.111328], [66.698633, 25.226318], [66.569922, 25.378516], [66.533887, 25.484375], [66.428613, 25.575342], [66.324219, 25.601807], [66.219043, 25.589893], [66.162305, 25.553906], [66.131152, 25.493262], [66.356445, 25.507373], [66.407129, 25.485059], [66.467676, 25.445312], [66.40293, 25.446826], [66.32832, 25.465771], [66.234668, 25.464355], [65.883594, 25.419629], [65.679688, 25.355273], [65.40625, 25.374316], [65.061328, 25.311084], [64.77666, 25.307324], [64.658984, 25.184082], [64.594043, 25.206299], [64.54375, 25.23667], [64.152051, 25.333447], [64.124902, 25.373926], [64.059375, 25.40293], [63.987305, 25.351172], [63.935547, 25.342529], [63.720898, 25.385889], [63.556641, 25.353174], [63.495703, 25.29751], [63.491406, 25.21084], [63.285742, 25.227588], [63.17002, 25.254883], [63.015039, 25.224658], [62.664746, 25.264795], [62.572461, 25.254736], [62.444727, 25.197266], [62.391211, 25.152539], [62.315332, 25.134912], [62.24873, 25.197363], [62.198633, 25.224854], [62.152148, 25.206641], [62.089453, 25.155322], [61.90791, 25.131299], [61.743652, 25.138184], [61.533105, 25.195508], [61.490332, 25.153662], [61.412207, 25.1021], [61.242969, 25.141992], [61.108594, 25.183887], [60.663867, 25.282227], [60.615137, 25.329834], [60.5875, 25.413525], [60.510547, 25.437061], [60.400195, 25.311572], [60.024707, 25.384131], [59.89707, 25.361816], [59.818359, 25.400879], [59.616016, 25.403271], [59.456055, 25.481494], [59.227246, 25.427734], [59.046094, 25.417285], [58.797852, 25.55459], [58.530859, 25.592432], [58.314258, 25.580859], [58.20293, 25.591602], [58.022363, 25.64082], [57.936621, 25.69165], [57.796094, 25.653027], [57.73252, 25.724902], [57.33457, 25.791553], [57.260938, 25.918848], [57.205566, 26.037207], [57.201367, 26.158838], [57.104297, 26.371436], [57.071973, 26.680078], [57.036035, 26.800684], [56.982227, 26.905469], [56.910449, 26.99458], [56.812891, 27.08999], [56.728125, 27.127686], [56.356152, 27.200244], [56.284375, 27.190625], [56.118066, 27.143115], [55.941113, 27.037598], [55.650293, 26.977539], [55.591602, 26.932129], [55.518555, 26.829932], [55.424023, 26.770557], [55.294141, 26.785937], [55.15459, 26.725391], [55.0, 26.624615301728433], [55.0, 30.0], [80.0, 30.0], [80.0, 12.25521422047272], [79.981738, 12.235449]]], [[[55.098145, 25.041602], [55.303516, 25.236816], [55.32168, 25.299805], [55.433398, 25.394482], [55.522852, 25.498145], [55.941211, 25.793994], [56.025195, 25.916016], [56.074609, 26.052783], [56.080469, 26.062646], [56.164453, 26.207031], [56.197266, 26.229199], [56.228418, 26.219775], [56.305566, 26.235205], [56.346484, 26.313623], [56.378711, 26.356348], [56.413086, 26.351172], [56.429785, 26.327197], [56.417773, 26.208154], [56.416406, 26.10874], [56.373633, 25.80459], [56.329297, 25.751953], [56.307227, 25.709326], [56.297852, 25.650684], [56.363477, 25.569385], [56.372852, 25.018311], [56.387988, 24.979199], [56.489844, 24.716357], [56.640625, 24.470312], [56.774121, 24.33457], [56.9125, 24.150195], [57.123047, 23.980713], [57.219824, 23.922754], [57.611328, 23.803662], [57.825098, 23.759131], [58.12041, 23.716553], [58.324512, 23.623828], [58.393164, 23.618164], [58.5, 23.645654], [58.578027, 23.643457], [58.773047, 23.517187], [58.830371, 23.397461], [58.911523, 23.33418], [58.983398, 23.234717], [59.029883, 23.130566], [59.194727, 22.971875], [59.310938, 22.793359], [59.429395, 22.66084], [59.535156, 22.578516], [59.695605, 22.546143], [59.823242, 22.508984], [59.8375, 22.420557], [59.824414, 22.305176], [59.8, 22.219922], [59.680859, 22.053809], [59.652539, 21.951367], [59.517578, 21.782324], [59.371484, 21.498828], [59.304492, 21.435352], [59.06875, 21.289062], [58.895703, 21.112793], [58.69043, 20.807129], [58.53418, 20.503906], [58.474219, 20.406885], [58.34873, 20.386914], [58.266016, 20.395459], [58.208984, 20.423975], [58.231641, 20.506836], [58.24502, 20.599219], [58.169434, 20.589502], [58.10293, 20.570361], [57.947168, 20.343604], [57.861816, 20.244141], [57.843652, 20.117725], [57.802148, 19.95459], [57.741211, 19.804492], [57.71416, 19.678418], [57.715137, 19.606934], [57.76084, 19.432227], [57.763965, 19.25332], [57.790332, 19.145947], [57.811621, 19.01709], [57.738477, 18.977344], [57.675781, 18.957861], [57.42793, 18.943799], [57.176563, 18.902588], [56.957227, 18.827832], [56.825977, 18.753516], [56.655078, 18.587354], [56.550781, 18.165967], [56.383496, 17.987988], [56.270313, 17.950781], [55.997656, 17.935205], [55.613867, 17.886084], [55.479102, 17.843262], [55.255371, 17.585645], [55.238184, 17.504736], [55.281445, 17.44624], [55.295605, 17.381592], [55.275195, 17.320898], [55.17373, 17.157617], [55.06416, 17.038916], [55.0, 17.02261329927981], [55.0, 24.977035758381525], [55.098145, 25.041602]]], [[[55.29502, 26.639209], [55.296484, 26.657568], [55.346973, 26.647949], [55.531738, 26.71001], [55.762598, 26.811963], [55.78457, 26.857178], [55.747461, 26.930957], [55.757617, 26.947656], [55.907129, 26.909814], [56.074121, 26.98335], [56.213965, 27.003271], [56.279395, 26.9521], [56.187988, 26.921143], [56.094922, 26.801172], [55.954297, 26.701123], [55.894141, 26.732275], [55.847656, 26.730811], [55.747266, 26.69248], [55.674609, 26.68584], [55.543164, 26.617529], [55.42373, 26.583105], [55.34043, 26.585742], [55.311523, 26.592627], [55.29502, 26.639209]]]]}}]}